1 41772U 16058C   21165.46251020  .00000752  00000-0  33360-4 0  9999
2 41772  97.3129 233.4736 0002025  91.1314 269.0156 15.24552694263687